ONEWEB-0012             
1 44057U 19010A   26168.10118277  .00000085  00000+0  18913-3 0  9998
2 44057  87.9099 228.8025 0001938  85.4271 274.7081 13.16594553351559
ONEWEB-0010             
1 44058U 19010B   26167.89852275 -.00000039  00000+0 -13442-3 0  9990
2 44058  87.9098 228.8384 0001877 106.8289 253.3048 13.16594732351573
ONEWEB-0008             
1 44059U 19010C   26167.92385213  .00000042  00000+0  75056-4 0  9990
2 44059  87.9095 228.8290 0002327  98.3162 261.8233 13.16595543351697
ONEWEB-0007             
1 44060U 19010D   26167.95875895 -.00000042  00000+0 -14549-3 0  9996
2 44060  87.9003 259.2666 0001667  98.8702 261.2617 13.15549203351347
ONEWEB-0006             
1 44061U 19010E   26167.96270819 -.00000080  00000+0 -24670-3 0  9991
2 44061  87.9016 259.2300 0001868 103.4182 256.7157 13.15549125351391
ONEWEB-0011             
1 44062U 19010F   26168.00707683  .00000165  00000+0  40490-3 0  9992
2 44062  87.9014 259.2309 0002084 105.4602 254.6758 13.15547364351396
ONEWEB-0013             
1 45131U 20008A   26168.09362411 -.00000649  00000+0 -19216-2 0  9994
2 45131  87.8523  52.8441 0002263  54.6440 305.4898 13.09457880306055
ONEWEB-0017             
1 45132U 20008B   26168.07608492  .00000600  00000+0  16821-2 0  9999
2 45132  87.8834  36.2911 0001659  88.1581 271.9736 13.10375384307931
ONEWEB-0020             
1 45133U 20008C   26168.04613720  .00002955  00000+0  84225-2 0  9995
2 45133  87.8835  36.2955 0001777  81.8937 278.2392 13.10406920308320
ONEWEB-0021             
1 45134U 20008D   26168.06111519  .00001343  00000+0  38092-2 0  9998
2 45134  87.8835  36.3084 0001818  80.8451 279.2882 13.10388240308634
ONEWEB-0023             
1 45136U 20008F   26168.07192580  .00001180  00000+0  33426-2 0  9993
2 45136  87.8840  36.2881 0001905  78.5866 281.5476 13.10382590308061
ONEWEB-0024             
1 45137U 20008G   26168.04458834  .00005698  00000+0  16262-1 0  9994
2 45137  87.8799  36.2899 0002079  82.6759 277.4605 13.10429983308228
ONEWEB-0025             
1 45138U 20008H   26168.04431201  .00005823  00000+0  16619-1 0  9990
2 45138  87.8788  36.2769 0002865  90.4546 269.6910 13.10430153308556
ONEWEB-0026             
1 45139U 20008J   26168.08224994 -.00000443  00000+0 -12846-2 0  9998
2 45139  87.8884  21.0892 0001809  90.7533 269.3803 13.11416219311098
ONEWEB-0028             
1 45140U 20008K   26168.05767172  .00000222  00000+0  58989-3 0  9999
2 45140  87.8878  21.1026 0001981  68.2673 291.8665 13.11413366308608
ONEWEB-0032             
1 45141U 20008L   26168.07788600  .00000644  00000+0  18073-2 0  9998
2 45141  87.8833  36.2924 0002007  69.6915 290.4428 13.10374379308283
ONEWEB-0033             
1 45142U 20008M   26168.05277426  .00003854  00000+0  10994-1 0  9995
2 45142  87.8817  36.3066 0002102  99.4277 260.7088 13.10413212308194
ONEWEB-0035             
1 45143U 20008N   26168.07290547  .00000425  00000+0  11798-2 0  9992
2 45143  87.8832  36.2934 0001719  85.1371 274.9953 13.10376973307925
ONEWEB-0036             
1 45144U 20008P   26168.04797475 -.00000585  00000+0 -17225-2 0  9992
2 45144  87.8848  36.3101 0001935  77.4874 282.6470 13.09982731308342
ONEWEB-0038             
1 45145U 20008Q   26168.09256751 -.00000219  00000+0 -65484-3 0  9990
2 45145  87.8900  21.0960 0000384  17.9092 342.2050 13.11418895310319
ONEWEB-0039             
1 45146U 20008R   26168.05615424 -.00000382  00000+0 -11307-2 0  9998
2 45146  87.8833  36.2943 0001912  66.6799 293.4529 13.10375478308141
ONEWEB-0040             
1 45147U 20008S   26167.89677889 -.00000546  00000+0 -15988-2 0  9994
2 45147  87.8826  36.3351 0001636  79.9024 280.2288 13.10390462307829
ONEWEB-0043             
1 45149U 20008U   26168.05111095  .00004108  00000+0  11720-1 0  9992
2 45149  87.8836  36.2936 0002316  68.9513 291.1861 13.10415952308165
ONEWEB-0044             
1 45150U 20008V   26168.00305256  .00000629  00000+0  17659-2 0  9995
2 45150  87.8841  36.3036 0001773  76.2453 283.8872 13.10373307308455
ONEWEB-0045             
1 45151U 20008W   26168.08734241 -.00000565  00000+0 -16290-2 0  9995
2 45151  87.8896  21.0794 0001772  81.5962 278.5367 13.11417468310395
ONEWEB-0047             
1 45152U 20008X   26168.07261985  .00000919  00000+0  25957-2 0  9996
2 45152  87.8840  36.2893 0001606  85.0241 275.1070 13.10380832308189
ONEWEB-0048             
1 45153U 20008Y   26168.06777713  .00000206  00000+0  55496-3 0  9998
2 45153  87.8833  36.3114 0001731  83.2916 276.8408 13.10376910307798
ONEWEB-0049             
1 45154U 20008Z   26168.07095902  .00001329  00000+0  37700-2 0  9997
2 45154  87.8830  36.3002 0002226  80.7937 279.3442 13.10384325308018
ONEWEB-0051             
1 45155U 20008AA  26168.08565367 -.00000433  00000+0 -12577-2 0  9998
2 45155  87.8887  21.0873 0001830  85.1292 275.0045 13.11418812311073
ONEWEB-0052             
1 45156U 20008AB  26168.09117899 -.00000484  00000+0 -14239-2 0  9996
2 45156  87.8842  36.2789 0001802  94.2942 265.8391 13.10361400307920
ONEWEB-0053             
1 45157U 20008AC  26168.04780985  .00003001  00000+0  85538-2 0  9990
2 45157  87.8831  36.3139 0002427  71.5284 288.6107 13.10400315307893
