OBJECT_NAME,OBJECT_ID,EPOCH,MEAN_MOTION,ECCENTRICITY,INCLINATION,RA_OF_ASC_NODE,ARG_OF_PERICENTER,MEAN_ANOMALY,EPHEMERIS_TYPE,CLASSIFICATION_TYPE,NORAD_CAT_ID,ELEMENT_SET_NO,REV_AT_EPOCH,BSTAR,MEAN_MOTION_DOT,MEAN_MOTION_DDOT
ONEWEB-0012,2019-010A,2026-06-17T02:25:42.191328,13.16594553,.0001938,87.9099,228.8025,85.4271,274.7081,0,U,44057,999,35155,.18913E-3,.85E-6,0
ONEWEB-0010,2019-010B,2026-06-16T21:33:52.365600,13.16594732,.0001877,87.9098,228.8384,106.8289,253.3048,0,U,44058,999,35157,-.13442E-3,-.39E-6,0
ONEWEB-0008,2019-010C,2026-06-16T22:10:20.824032,13.16595543,.0002327,87.9095,228.8290,98.3162,261.8233,0,U,44059,999,35169,.75056E-4,.42E-6,0
ONEWEB-0007,2019-010D,2026-06-16T23:00:36.773280,13.15549203,.0001667,87.9003,259.2666,98.8702,261.2617,0,U,44060,999,35134,-.14549E-3,-.42E-6,0
ONEWEB-0006,2019-010E,2026-06-16T23:06:17.987616,13.15549125,.0001868,87.9016,259.2300,103.4182,256.7157,0,U,44061,999,35139,-.2467E-3,-.8E-6,0
ONEWEB-0011,2019-010F,2026-06-17T00:10:11.438112,13.15547364,.0002084,87.9014,259.2309,105.4602,254.6758,0,U,44062,999,35139,.4049E-3,.165E-5,0
ONEWEB-0013,2020-008A,2026-06-17T02:14:49.123104,13.09457880,.0002263,87.8523,52.8441,54.6440,305.4898,0,U,45131,999,30605,-.19216E-2,-.649E-5,0
ONEWEB-0017,2020-008B,2026-06-17T01:49:33.737088,13.10375384,.0001659,87.8834,36.2911,88.1581,271.9736,0,U,45132,999,30793,.16821E-2,.6E-5,0
ONEWEB-0020,2020-008C,2026-06-17T01:06:26.254080,13.10406920,.0001777,87.8835,36.2955,81.8937,278.2392,0,U,45133,999,30832,.84225E-2,.2955E-4,0
ONEWEB-0021,2020-008D,2026-06-17T01:28:00.352416,13.10388240,.0001818,87.8835,36.3084,80.8451,279.2882,0,U,45134,999,30863,.38092E-2,.1343E-4,0
ONEWEB-0023,2020-008F,2026-06-17T01:43:34.389120,13.10382590,.0001905,87.8840,36.2881,78.5866,281.5476,0,U,45136,999,30806,.33426E-2,.118E-4,0
ONEWEB-0024,2020-008G,2026-06-17T01:04:12.432576,13.10429983,.0002079,87.8799,36.2899,82.6759,277.4605,0,U,45137,999,30822,.16262E-1,.5698E-4,0
ONEWEB-0025,2020-008H,2026-06-17T01:03:48.557664,13.10430153,.0002865,87.8788,36.2769,90.4546,269.6910,0,U,45138,999,30855,.16619E-1,.5823E-4,0
ONEWEB-0026,2020-008J,2026-06-17T01:58:26.394816,13.11416219,.0001809,87.8884,21.0892,90.7533,269.3803,0,U,45139,999,31109,-.12846E-2,-.443E-5,0
ONEWEB-0028,2020-008K,2026-06-17T01:23:02.836608,13.11413366,.0001981,87.8878,21.1026,68.2673,291.8665,0,U,45140,999,30860,.58989E-3,.222E-5,0
ONEWEB-0032,2020-008L,2026-06-17T01:52:09.350400,13.10374379,.0002007,87.8833,36.2924,69.6915,290.4428,0,U,45141,999,30828,.18073E-2,.644E-5,0
ONEWEB-0033,2020-008M,2026-06-17T01:15:59.696064,13.10413212,.0002102,87.8817,36.3066,99.4277,260.7088,0,U,45142,999,30819,.10994E-1,.3854E-4,0
ONEWEB-0035,2020-008N,2026-06-17T01:44:59.032608,13.10376973,.0001719,87.8832,36.2934,85.1371,274.9953,0,U,45143,999,30792,.11798E-2,.425E-5,0
ONEWEB-0036,2020-008P,2026-06-17T01:09:05.018400,13.09982731,.0001935,87.8848,36.3101,77.4874,282.6470,0,U,45144,999,30834,-.17225E-2,-.585E-5,0
ONEWEB-0038,2020-008Q,2026-06-17T02:13:17.832864,13.11418895,.0000384,87.8900,21.0960,17.9092,342.2050,0,U,45145,999,31031,-.65484E-3,-.219E-5,0
ONEWEB-0039,2020-008R,2026-06-17T01:20:51.726336,13.10375478,.0001912,87.8833,36.2943,66.6799,293.4529,0,U,45146,999,30814,-.11307E-2,-.382E-5,0
ONEWEB-0040,2020-008S,2026-06-16T21:31:21.696096,13.10390462,.0001636,87.8826,36.3351,79.9024,280.2288,0,U,45147,999,30782,-.15988E-2,-.546E-5,0
ONEWEB-0043,2020-008U,2026-06-17T01:13:35.986080,13.10415952,.0002316,87.8836,36.2936,68.9513,291.1861,0,U,45149,999,30816,.1172E-1,.4108E-4,0
ONEWEB-0044,2020-008V,2026-06-17T00:04:23.741184,13.10373307,.0001773,87.8841,36.3036,76.2453,283.8872,0,U,45150,999,30845,.17659E-2,.629E-5,0
ONEWEB-0045,2020-008W,2026-06-17T02:05:46.384224,13.11417468,.0001772,87.8896,21.0794,81.5962,278.5367,0,U,45151,999,31039,-.1629E-2,-.565E-5,0
ONEWEB-0047,2020-008X,2026-06-17T01:44:34.355040,13.10380832,.0001606,87.8840,36.2893,85.0241,275.1070,0,U,45152,999,30818,.25957E-2,.919E-5,0
ONEWEB-0048,2020-008Y,2026-06-17T01:37:35.944032,13.10376910,.0001731,87.8833,36.3114,83.2916,276.8408,0,U,45153,999,30779,.55496E-3,.206E-5,0
ONEWEB-0049,2020-008Z,2026-06-17T01:42:10.859328,13.10384325,.0002226,87.8830,36.3002,80.7937,279.3442,0,U,45154,999,30801,.377E-2,.1329E-4,0
ONEWEB-0051,2020-008AA,2026-06-17T02:03:20.477088,13.11418812,.000183,87.8887,21.0873,85.1292,275.0045,0,U,45155,999,31107,-.12577E-2,-.433E-5,0
ONEWEB-0052,2020-008AB,2026-06-17T02:11:17.864736,13.10361400,.0001802,87.8842,36.2789,94.2942,265.8391,0,U,45156,999,30792,-.14239E-2,-.484E-5,0
ONEWEB-0053,2020-008AC,2026-06-17T01:08:50.771040,13.10400315,.0002427,87.8831,36.3139,71.5284,288.6107,0,U,45157,999,30789,.85538E-2,.3001E-4,0
